OBJECT_NAME,OBJECT_ID,EPOCH,MEAN_MOTION,ECCENTRICITY,INCLINATION,RA_OF_ASC_NODE,ARG_OF_PERICENTER,MEAN_ANOMALY,EPHEMERIS_TYPE,CLASSIFICATION_TYPE,NORAD_CAT_ID,ELEMENT_SET_NO,REV_AT_EPOCH,BSTAR,MEAN_MOTION_DOT,MEAN_MOTION_DDOT
ONEWEB-0564,2023-029F,2024-01-20T13:59:43.181088,13.20771947,.0001422,87.9180,89.3527,104.9098,255.2193,0,U,55801,999,4517,.93721E-4,.51E-6,0
ONEWEB-0639,2023-029H,2024-01-20T07:33:59.543136,13.19724560,.0003264,87.9209,119.9223,107.0382,253.1109,0,U,55803,999,4298,-.49344E-3,-.185E-5,0
ONEWEB-0640,2023-029J,2024-01-20T14:56:46.299840,13.14502886,.0002378,87.8978,104.6340,126.5738,233.5611,0,U,55804,999,4399,-.58935E-4,-.9E-7,0
ONEWEB-0641,2023-029K,2024-01-20T07:27:10.166976,13.19725876,.0002052,87.9206,119.9098,104.7578,255.3782,0,U,55805,999,4299,-.11403E-3,-.33E-6,0
ONEWEB-0642,2023-029L,2024-01-20T07:20:21.192576,13.19725925,.0002929,87.9212,119.9273,101.0377,259.1085,0,U,55806,999,4298,-.3932E-4,-.3E-7,0
ONEWEB-0643,2023-029M,2024-01-20T14:13:24.028608,13.14503392,.0002617,87.8975,104.6151,86.2164,273.9265,0,U,55807,999,4396,.60397E-3,.237E-5,0
ONEWEB-0649,2023-029S,2024-01-20T06:57:36.210816,13.19725697,.0002344,87.9208,119.9270,108.0269,252.1120,0,U,55812,999,4300,.28626E-3,.128E-5,0
ONEWEB-0650,2023-029T,2024-01-20T06:50:46.824288,13.19725458,.0002126,87.9209,119.9263,100.3817,259.7556,0,U,55813,999,4297,.15202E-3,.74E-6,0
ONEWEB-0652,2023-029U,2024-01-20T14:49:55.731360,13.14502713,.0001556,87.8980,104.5919,105.4681,254.6620,0,U,55814,999,4394,.21514E-3,.93E-6,0
ONEWEB-0653,2023-029V,2024-01-20T14:27:05.397120,13.14504436,.0001729,87.8979,104.5709,119.7556,240.3746,0,U,55815,999,4397,.6698E-3,.261E-5,0
ONEWEB-0657,2023-029Y,2024-01-20T06:43:56.978112,13.19724387,.0001491,87.9210,119.9327,70.1287,290.0006,0,U,55818,999,4298,.19264E-3,.9E-6,0
ONEWEB-0658,2023-029Z,2024-01-20T08:26:18.406752,13.19724092,.0002407,87.9207,119.8552,101.9825,258.1578,0,U,55819,999,4300,-.54285E-4,-.9E-7,0
ONEWEB-0660,2023-029AA,2024-01-20T06:29:49.977312,13.14503634,.0002239,87.8979,104.6277,116.2574,243.8786,0,U,55820,999,4393,-.1754E-3,-.52E-6,0
ONEWEB-0661,2023-029AB,2024-01-20T14:38:29.755104,13.14502294,.0002076,87.8979,104.6251,117.8553,242.2788,0,U,55821,999,4396,.47053E-3,.187E-5,0
ONEWEB-0662,2023-029AC,2024-01-20T06:20:40.704864,13.14501163,.0002223,87.8976,104.7017,110.7207,249.4162,0,U,55822,999,4396,-.5035E-3,-.174E-5,0
ONEWEB-0664,2023-029AE,2024-01-20T13:32:26.892960,13.20771765,.0001683,87.9182,89.3725,119.0325,241.0977,0,U,55824,999,4516,-.40837E-3,-.153E-5,0
ONEWEB-0665,2023-029AF,2024-01-20T14:33:56.323296,13.14503245,.0002116,87.8980,104.6007,113.6349,246.5003,0,U,55825,999,4398,.56799E-3,.223E-5,0
ONEWEB-0666,2023-029AG,2024-01-20T13:23:21.834240,13.20770789,.0001371,87.9181,89.3651,91.7854,268.3436,0,U,55826,999,4517,-.37146E-3,-.138E-5,0
ONEWEB-0667,2023-029AH,2024-01-20T13:14:15.578880,13.20771810,.0001992,87.9180,89.3006,112.9267,247.2077,0,U,55827,999,4516,-.17339E-3,-.58E-6,0
ONEWEB-0670,2023-029AK,2024-01-20T06:43:31.739808,13.14502408,.0002015,87.8979,104.6670,121.0034,239.1294,0,U,55829,999,4396,.3671E-3,.149E-5,0
ONEWEB-0671,2023-029AL,2024-01-20T08:19:28.804224,13.19723677,.0001934,87.9208,119.9199,115.1576,244.9758,0,U,55830,999,4298,-.15042E-3,-.47E-6,0
