ONEWEB-0564             
1 55801U 23029F   24020.58313867  .00000051  00000+0  93721-4 0  9995
2 55801  87.9180  89.3527 0001422 104.9098 255.2193 13.20771947 45173
ONEWEB-0639             
1 55803U 23029H   24020.31527249 -.00000185  00000+0 -49344-3 0  9990
2 55803  87.9209 119.9223 0003264 107.0382 253.1109 13.19724560 42983
ONEWEB-0640             
1 55804U 23029J   24020.62275810 -.00000009  00000+0 -58935-4 0  9991
2 55804  87.8978 104.6340 0002378 126.5738 233.5611 13.14502886 43995
ONEWEB-0641             
1 55805U 23029K   24020.31053434 -.00000033  00000+0 -11403-3 0  9999
2 55805  87.9206 119.9098 0002052 104.7578 255.3782 13.19725876 42990
ONEWEB-0642             
1 55806U 23029L   24020.30580084 -.00000003  00000+0 -39320-4 0  9991
2 55806  87.9212 119.9273 0002929 101.0377 259.1085 13.19725925 42985
ONEWEB-0643             
1 55807U 23029M   24020.59263922  .00000237  00000+0  60397-3 0  9996
2 55807  87.8975 104.6151 0002617  86.2164 273.9265 13.14503392 43969
ONEWEB-0649             
1 55812U 23029S   24020.29000244  .00000128  00000+0  28626-3 0  9993
2 55812  87.9208 119.9270 0002344 108.0269 252.1120 13.19725697 43005
ONEWEB-0650             
1 55813U 23029T   24020.28526417  .00000074  00000+0  15202-3 0  9994
2 55813  87.9209 119.9263 0002126 100.3817 259.7556 13.19725458 42977
ONEWEB-0652             
1 55814U 23029U   24020.61800615  .00000093  00000+0  21514-3 0  9991
2 55814  87.8980 104.5919 0001556 105.4681 254.6620 13.14502713 43948
ONEWEB-0653             
1 55815U 23029V   24020.60214580  .00000261  00000+0  66980-3 0  9994
2 55815  87.8979 104.5709 0001729 119.7556 240.3746 13.14504436 43973
ONEWEB-0657             
1 55818U 23029Y   24020.28052058  .00000090  00000+0  19264-3 0  9994
2 55818  87.9210 119.9327 0001491  70.1287 290.0006 13.19724387 42983
ONEWEB-0658             
1 55819U 23029Z   24020.35160193 -.00000009  00000+0 -54285-4 0  9998
2 55819  87.9207 119.8552 0002407 101.9825 258.1578 13.19724092 43004
ONEWEB-0660             
1 55820U 23029AA  24020.27071733 -.00000052  00000+0 -17540-3 0  9992
2 55820  87.8979 104.6277 0002239 116.2574 243.8786 13.14503634 43936
ONEWEB-0661             
1 55821U 23029AB  24020.61006661  .00000187  00000+0  47053-3 0  9998
2 55821  87.8979 104.6251 0002076 117.8553 242.2788 13.14502294 43961
ONEWEB-0662             
1 55822U 23029AC  24020.26436001 -.00000174  00000+0 -50350-3 0  9997
2 55822  87.8976 104.7017 0002223 110.7207 249.4162 13.14501163 43961
ONEWEB-0664             
1 55824U 23029AE  24020.56420015 -.00000153  00000+0 -40837-3 0  9996
2 55824  87.9182  89.3725 0001683 119.0325 241.0977 13.20771765 45169
ONEWEB-0665             
1 55825U 23029AF  24020.60690189  .00000223  00000+0  56799-3 0  9993
2 55825  87.8980 104.6007 0002116 113.6349 246.5003 13.14503245 43984
ONEWEB-0666             
1 55826U 23029AG  24020.55789160 -.00000138  00000+0 -37146-3 0  9998
2 55826  87.9181  89.3651 0001371  91.7854 268.3436 13.20770789 45173
ONEWEB-0667             
1 55827U 23029AH  24020.55156920 -.00000058  00000+0 -17339-3 0  9994
2 55827  87.9180  89.3006 0001992 112.9267 247.2077 13.20771810 45162
ONEWEB-0670             
1 55829U 23029AK  24020.28022847  .00000149  00000+0  36710-3 0  9999
2 55829  87.8979 104.6670 0002015 121.0034 239.1294 13.14502408 43962
ONEWEB-0671             
1 55830U 23029AL  24020.34686116 -.00000047  00000+0 -15042-3 0  9997
2 55830  87.9208 119.9199 0001934 115.1576 244.9758 13.19723677 42987
